{"type": "FeatureCollection", "features": [ {"type": "Feature", "properties": {"norad_id": 65590, "name": "COSMOS 2596 (708K)", "group": "gnss", "lat": 60.55526678868919, "lon": 84.82119897421178, "alt_km": 19157.027367502, "timestamp": "2025-12-10T11:33:53.630156+00:00", "meta": {"OBJECT_NAME": "COSMOS 2596 (708K)", "OBJECT_ID": "2025-206B", "EPOCH": "2025-12-09T12:39:23.935968", "MEAN_MOTION": 2.13100288, "ECCENTRICITY": 0.00140016, "INCLINATION": 64.7457, "RA_OF_ASC_NODE": 321.5852, "ARG_OF_PERICENTER": 305.6143, "MEAN_ANOMALY": 147.6816, "EPHEMERIS_TYPE": 0, "CLASSIFICATION_TYPE": "U", "NORAD_CAT_ID": 65590, "ELEMENT_SET_NO": 999, "REV_AT_EPOCH": 187, "BSTAR": 0, "MEAN_MOTION_DOT": -5.1e-07, "MEAN_MOTION_DDOT": 0}, "tle": {"line1": "1 65590U 25206B   25343.52736037 -.00000051  00000+0  00000+0 0  9995", "line2": "2 65590  64.7457 321.5852 0014001 305.6143 147.6816  2.13100288  1878"}}, "geometry": {"type": "Point", "coordinates": [84.82119897421178, 60.55526678868919]}}]}